[{"OBJECT_NAME":"STARLINK-5977","OBJECT_ID":"2023-078AA","EPOCH":"2026-03-09T21:30:17.415360","MEAN_MOTION":14.98338947,"ECCENTRICITY":0.00031533,"INCLINATION":70.001,"RA_OF_ASC_NODE":343.8401,"ARG_OF_PERICENTER":269.6749,"MEAN_ANOMALY":90.4049,"EPHEMERIS_TYPE":0,"CLASSIFICATION_TYPE":"U","NORAD_CAT_ID":56791,"ELEMENT_SET_NO":999,"REV_AT_EPOCH":15271,"BSTAR":-0.00019998517,"MEAN_MOTION_DOT":-2.479e-5,"MEAN_MOTION_DDOT":0},{"OBJECT_NAME":"OBJECT H","OBJECT_ID":"2025-313H","EPOCH":"2026-03-09T22:36:06.294528","MEAN_MOTION":15.02722765,"ECCENTRICITY":0.0085698,"INCLINATION":97.296,"RA_OF_ASC_NODE":142.3052,"ARG_OF_PERICENTER":313.0136,"MEAN_ANOMALY":46.393,"EPHEMERIS_TYPE":0,"CLASSIFICATION_TYPE":"U","NORAD_CAT_ID":67255,"ELEMENT_SET_NO":999,"REV_AT_EPOCH":1072,"BSTAR":0.0002424576,"MEAN_MOTION_DOT":3.444e-5,"MEAN_MOTION_DDOT":0}]
